OBJECT_NAME,OBJECT_ID,EPOCH,MEAN_MOTION,ECCENTRICITY,INCLINATION,RA_OF_ASC_NODE,ARG_OF_PERICENTER,MEAN_ANOMALY,EPHEMERIS_TYPE,CLASSIFICATION_TYPE,NORAD_CAT_ID,ELEMENT_SET_NO,REV_AT_EPOCH,BSTAR,MEAN_MOTION_DOT,MEAN_MOTION_DDOT
ONEWEB-0339,2021-083V,2026-06-26T15:31:50.880288,13.13470813,.00018,87.8960,318.3423,107.5054,252.6272,0,U,49205,999,23213,-.82439E-3,-.288E-5,0
ONEWEB-0340,2021-083W,2026-06-26T16:39:18.837792,13.18686232,.0001982,87.9179,333.5642,91.3358,268.8001,0,U,49206,999,23122,.81499E-4,.45E-6,0
ONEWEB-0341,2021-083X,2026-06-26T16:49:01.452000,13.18686928,.0002357,87.9169,333.5653,98.1810,261.9590,0,U,49207,999,23124,.23062E-3,.104E-5,0
ONEWEB-0342,2021-083Y,2026-06-26T06:57:51.340320,13.20771106,.0002011,87.9196,272.6230,103.3199,256.8159,0,U,49208,999,23798,.14485E-3,.72E-6,0
ONEWEB-0343,2021-083Z,2026-06-26T11:33:22.919328,13.18686607,.0001841,87.9170,333.6078,107.8584,252.2749,0,U,49209,999,23126,.14987E-3,.72E-6,0
ONEWEB-0344,2021-083AA,2026-06-26T15:24:31.665888,13.13468729,.0002232,87.8953,318.3570,99.9655,260.1726,0,U,49210,999,23213,-.69127E-3,-.24E-5,0
ONEWEB-0345,2021-083AB,2026-06-26T15:12:20.869632,13.13468861,.0002185,87.8970,318.3413,100.4291,259.7085,0,U,49211,999,23214,-.13687E-3,-.37E-6,0
ONEWEB-0346,2021-083AC,2026-06-26T16:56:18.622176,13.18686642,.0002087,87.9168,333.5630,76.5394,283.5970,0,U,49212,999,23123,.15297E-3,.73E-6,0
ONEWEB-0348,2021-083AD,2026-06-26T17:37:50.932128,13.20771429,.0002367,87.9188,272.5384,90.7503,269.3902,0,U,49213,999,23807,.25722E-3,.118E-5,0
ONEWEB-0350,2021-083AE,2026-06-26T15:39:09.382752,13.13470367,.0000981,87.8966,318.3427,121.8229,238.2995,0,U,49214,999,23217,-.70081E-3,-.243E-5,0
ONEWEB-0351,2021-083AF,2026-06-26T17:27:56.843136,13.20771029,.0002395,87.9197,272.5388,120.2189,239.9181,0,U,49215,999,23803,-.15724E-3,-.51E-6,0
ONEWEB-0352,2021-083AG,2026-06-26T14:57:43.661664,13.13471203,.0001878,87.8963,318.3537,111.3978,248.7351,0,U,49216,999,23226,.72946E-3,.279E-5,0
ONEWEB-0354,2021-083AH,2026-06-26T16:17:49.750656,13.20772628,.0002362,87.9199,272.5471,95.3898,264.7505,0,U,49217,999,23806,-.19833E-3,-.68E-6,0
ONEWEB-0355,2021-083AJ,2026-06-26T15:39:22.346208,13.13470865,.0002028,87.8958,318.3490,103.4395,256.6960,0,U,49218,999,23214,-.59061E-3,-.203E-5,0
ONEWEB-0357,2021-083AK,2026-06-26T18:02:04.371072,13.20772729,.000209,87.9199,272.5269,105.8097,254.3267,0,U,49219,999,23807,.38199E-4,.29E-6,0
ONEWEB-0332,2021-090A,2026-06-26T17:36:02.058624,13.14502632,.0001777,87.8969,287.8066,105.3060,254.8266,0,U,49279,999,22883,-.21875E-3,-.68E-6,0
ONEWEB-0347,2021-090B,2026-06-26T17:47:32.716896,13.20771333,.0001786,87.9194,272.5368,103.5895,256.5438,0,U,49280,999,23230,.70189E-4,.42E-6,0
ONEWEB-0349,2021-090C,2026-06-26T13:06:19.376640,13.20773496,.0002032,87.9195,272.5762,100.2140,259.9223,0,U,49281,999,23106,.54889E-5,.15E-6,0
ONEWEB-0353,2021-090D,2026-06-26T17:24:36.903168,13.14503999,.0001716,87.8974,287.8042,105.1678,254.9642,0,U,49282,999,22883,-.44617E-3,-.153E-5,0
ONEWEB-0356,2021-090E,2026-06-26T16:42:03.204288,13.20773991,.000174,87.9196,272.5397,76.8328,283.2999,0,U,49283,999,23108,.70681E-4,.42E-6,0
ONEWEB-0358,2021-090F,2026-06-26T17:34:01.687872,13.20605679,.0001794,87.9195,272.5395,91.0851,269.0488,0,U,49284,999,23181,.76106E-1,.30987E-3,0
ONEWEB-0359,2021-090G,2026-06-26T17:20:50.791776,13.20773667,.0002276,87.9197,272.5345,95.6604,264.4788,0,U,49285,999,23179,-.19784E-3,-.67E-6,0
ONEWEB-0360,2021-090H,2026-06-26T17:06:19.197216,13.20770202,.0002118,87.9195,272.5427,101.3207,258.8165,0,U,49286,999,23110,-.1466E-3,-.47E-6,0
ONEWEB-0361,2021-090J,2026-06-26T16:39:39.578976,13.20771319,.0002078,87.9194,272.5445,96.8498,263.2871,0,U,49287,999,23155,-.97478E-4,-.27E-6,0
ONEWEB-0362,2021-090K,2026-06-26T17:31:24.720672,13.19725414,.0002096,87.9179,303.0768,106.7260,253.4103,0,U,49288,999,22817,.10853E-3,.56E-6,0
ONEWEB-0363,2021-090L,2026-06-26T17:01:28.684128,13.20771086,.0001912,87.9196,272.5419,90.4987,269.6365,0,U,49289,999,23156,-.14145E-3,-.45E-6,0
ONEWEB-0364,2021-090M,2026-06-26T12:29:57.774048,13.20772409,.0002086,87.9196,272.5874,100.2615,259.8754,0,U,49290,999,23267,.29782E-3,.134E-5,0
ONEWEB-0365,2021-090N,2026-06-26T17:45:03.733920,13.19725413,.0001898,87.9187,303.0643,102.1302,258.0043,0,U,49291,999,22768,-.7967E-4,-.19E-6,0
ONEWEB-0366,2021-090P,2026-06-26T17:20:03.023808,13.14503486,.0001991,87.8970,287.8064,100.3693,259.7661,0,U,49292,999,22881,-.59425E-3,-.208E-5,0
ONEWEB-0367,2021-090Q,2026-06-26T07:54:49.686336,13.20772197,.0001991,87.9192,272.6193,103.0414,257.0942,0,U,49293,999,23103,.73127E-4,.43E-6,0
