ONEWEB-0339             
1 49205U 21083V   26177.64711667 -.00000288  00000+0 -82439-3 0  9993
2 49205  87.8960 318.3423 0001800 107.5054 252.6272 13.13470813232133
ONEWEB-0340             
1 49206U 21083W   26177.69396803  .00000045  00000+0  81499-4 0  9995
2 49206  87.9179 333.5642 0001982  91.3358 268.8001 13.18686232231224
ONEWEB-0341             
1 49207U 21083X   26177.70071125  .00000104  00000+0  23062-3 0  9992
2 49207  87.9169 333.5653 0002357  98.1810 261.9590 13.18686928231242
ONEWEB-0342             
1 49208U 21083Y   26177.29017755  .00000072  00000+0  14485-3 0  9999
2 49208  87.9196 272.6230 0002011 103.3199 256.8159 13.20771106237980
ONEWEB-0343             
1 49209U 21083Z   26177.48151527  .00000072  00000+0  14987-3 0  9994
2 49209  87.9170 333.6078 0001841 107.8584 252.2749 13.18686607231266
ONEWEB-0344             
1 49210U 21083AA  26177.64203317 -.00000240  00000+0 -69127-3 0  9994
2 49210  87.8953 318.3570 0002232  99.9655 260.1726 13.13468729232136
ONEWEB-0345             
1 49211U 21083AB  26177.63357488 -.00000037  00000+0 -13687-3 0  9997
2 49211  87.8970 318.3413 0002185 100.4291 259.7085 13.13468861232143
ONEWEB-0346             
1 49212U 21083AC  26177.70577109  .00000073  00000+0  15297-3 0  9997
2 49212  87.9168 333.5630 0002087  76.5394 283.5970 13.18686642231233
ONEWEB-0348             
1 49213U 21083AD  26177.73461727  .00000118  00000+0  25722-3 0  9993
2 49213  87.9188 272.5384 0002367  90.7503 269.3902 13.20771429238072
ONEWEB-0350             
1 49214U 21083AE  26177.65219193 -.00000243  00000+0 -70081-3 0  9992
2 49214  87.8966 318.3427 0000981 121.8229 238.2995 13.13470367232175
ONEWEB-0351             
1 49215U 21083AF  26177.72774124 -.00000051  00000+0 -15724-3 0  9991
2 49215  87.9197 272.5388 0002395 120.2189 239.9181 13.20771029238032
ONEWEB-0352             
1 49216U 21083AG  26177.62342201  .00000279  00000+0  72946-3 0  9997
2 49216  87.8963 318.3537 0001878 111.3978 248.7351 13.13471203232269
ONEWEB-0354             
1 49217U 21083AH  26177.67904804 -.00000068  00000+0 -19833-3 0  9990
2 49217  87.9199 272.5471 0002362  95.3898 264.7505 13.20772628238067
ONEWEB-0355             
1 49218U 21083AJ  26177.65234197 -.00000203  00000+0 -59061-3 0  9998
2 49218  87.8958 318.3490 0002028 103.4395 256.6960 13.13470865232140
ONEWEB-0357             
1 49219U 21083AK  26177.75143948  .00000029  00000+0  38199-4 0  9997
2 49219  87.9199 272.5269 0002090 105.8097 254.3267 13.20772729238073
ONEWEB-0332             
1 49279U 21090A   26177.73335716 -.00000068  00000+0 -21875-3 0  9992
2 49279  87.8969 287.8066 0001777 105.3060 254.8266 13.14502632228837
ONEWEB-0347             
1 49280U 21090B   26177.74135089  .00000042  00000+0  70189-4 0  9999
2 49280  87.9194 272.5368 0001786 103.5895 256.5438 13.20771333232302
ONEWEB-0349             
1 49281U 21090C   26177.54605760  .00000015  00000+0  54889-5 0  9996
2 49281  87.9195 272.5762 0002032 100.2140 259.9223 13.20773496231067
ONEWEB-0353             
1 49282U 21090D   26177.72542712 -.00000153  00000+0 -44617-3 0  9995
2 49282  87.8974 287.8042 0001716 105.1678 254.9642 13.14503999228833
ONEWEB-0356             
1 49283U 21090E   26177.69587042  .00000042  00000+0  70681-4 0  9993
2 49283  87.9196 272.5397 0001740  76.8328 283.2999 13.20773991231087
ONEWEB-0358             
1 49284U 21090F   26177.73196398  .00030987  00000+0  76106-1 0  9995
2 49284  87.9195 272.5395 0001794  91.0851 269.0488 13.20605679231817
ONEWEB-0359             
1 49285U 21090G   26177.72281009 -.00000067  00000+0 -19784-3 0  9998
2 49285  87.9197 272.5345 0002276  95.6604 264.4788 13.20773667231799
ONEWEB-0360             
1 49286U 21090H   26177.71272219 -.00000047  00000+0 -14660-3 0  9997
2 49286  87.9195 272.5427 0002118 101.3207 258.8165 13.20770202231101
ONEWEB-0361             
1 49287U 21090J   26177.69420809 -.00000027  00000+0 -97478-4 0  9992
2 49287  87.9194 272.5445 0002078  96.8498 263.2871 13.20771319231559
ONEWEB-0362             
1 49288U 21090K   26177.73014723  .00000056  00000+0  10853-3 0  9993
2 49288  87.9179 303.0768 0002096 106.7260 253.4103 13.19725414228175
ONEWEB-0363             
1 49289U 21090L   26177.70935977 -.00000045  00000+0 -14145-3 0  9992
2 49289  87.9196 272.5419 0001912  90.4987 269.6365 13.20771086231563
ONEWEB-0364             
1 49290U 21090M   26177.52080757  .00000134  00000+0  29782-3 0  9991
2 49290  87.9196 272.5874 0002086 100.2615 259.8754 13.20772409232677
ONEWEB-0365             
1 49291U 21090N   26177.73962655 -.00000019  00000+0 -79670-4 0  9997
2 49291  87.9187 303.0643 0001898 102.1302 258.0043 13.19725413227684
ONEWEB-0366             
1 49292U 21090P   26177.72225722 -.00000208  00000+0 -59425-3 0  9999
2 49292  87.8970 287.8064 0001991 100.3693 259.7661 13.14503486228816
ONEWEB-0367             
1 49293U 21090Q   26177.32974174  .00000043  00000+0  73127-4 0  9999
2 49293  87.9192 272.6193 0001991 103.0414 257.0942 13.20772197231035
